73P-BT/Schwassmann-Wachmann,e,10.6226,191.3257,76.9645,3.075924,0.1827009,0.69493409,204.2441,09/20.0/2025,2000,g 11.5,6.0
# From MPEC 2022-P18
73P-BU/Schwassmann-Wachmann,e,10.8573,195.9051,74.4314,2.856894,0.2041094,0.67678545,227.1353,09/20.0/2025,2000,g 19.0,4.0
# From MPEC 2022-X67
73P-BV/Schwassmann-Wachmann,e,7.0940,59.4826,206.8625,3.094562,0.1810528,0.71199036,205.6884,09/20.0/2025,2000,g 19.0,4.0
# From MPEC 2022-R15
73P-BW/Schwassmann-Wachmann,e,10.1994,193.0706,71.6322,4.528290,0.1022828,0.78637929,114.9297,09/20.0/2025,2000,g 18.2,4.0
# From MPEC 2025-OF9
73P-BX/Schwassmann-Wachmann,e,6.9903,58.8359,207.5609,3.087851,0.1816433,0.71162327,206.0461,09/20.0/2025,2000,g 17.5,4.0
# From MPEC 2022-R15
73P-BY/Schwassmann-Wachmann,e,10.6892,191.8241,76.7680,3.015489,0.1882207,0.69033800,210.4385,09/20.0/2025,2000,g 17.4,4.0
# From MPEC 2025-R69
74P/Smirnova-Chernykh,e,6.0827,52.3367,61.9163,5.085258,0.0859478,0.04954034,340.4296,09/20.0/2025,2000,g  5.0,6.0
# From CCO 7
75D/Kohoutek,e,5.9270,269.5528,175.5975,3.536403,0.1482045,0.49954045,245.3640,09/20.0/2025,2000,g  9.5,6.0
# From MPEC 2022-K19
76P/West-Kohoutek-Ikemura,e,30.4884,84.1104,0.0155,3.466959,0.1526796,0.53945847,328.6146,09/20.0/2025,2000,g  8.0,12.0
# From MPC186635
77P/Longmore,e,24.3275,14.7484,196.6052,3.620021,0.1430993,0.35187838,128.9555,09/20.0/2025,2000,g  7.0,8.0
# From MPEC 2025-S35
78P/Gehrels,e,6.2571,210.4999,192.7723,3.733226,0.1366400,0.46303288,322.0065,09/20.0/2025,2000,g  5.5,8.0
# From MPEC 2024-PC5
79P/duToit-Hartley,e,3.1488,280.5008,281.7538,2.942335,0.1952836,0.61941305,140.7304,09/20.0/2025,2000,g 16.0,4.0
# From MPEC 2024-Q20
80P/Peters-Hartley,e,29.9271,259.7722,339.2630,4.021349,0.1222212,0.59767813,124.2933,09/20.0/2025,2000,g  9.0,8.0
# From MPEC 2024-RQ6
81P/Wild,e,3.2384,136.1019,41.5455,3.451302,0.1537198,0.53775177,155.1165,09/20.0/2025,2000,g  7.0,6.0
# From MPC133426
82P/Gehrels,e,1.1294,239.2153,226.4524,4.132562,0.1173208,0.12300735,310.5224,09/20.0/2025,2000,g  5.0,8.0
# From NK 932
83D/Russell,e,17.8322,226.2952,334.3684,3.843150,0.1308197,0.44152988,207.0189,09/20.0/2025,2000,g  9.0,4.0
# From MPEC 2020-FB5
84P/Giclas,e,7.5530,108.1406,281.6850,3.550053,0.1473506,0.51566505,284.7562,09/20.0/2025,2000,g  9.5,8.0
# From unp
85D/Boethin,e,4.1723,65.3012,333.0902,5.046742,0.0869336,0.77576807,163.2346,09/20.0/2025,2000,g  6.5,8.0
# From MPEC 2022-YB4
86P/Wild,e,15.4882,72.0945,181.0341,3.650333,0.1413206,0.36140732,187.7215,09/20.0/2025,2000,g 11.0,6.0
# From MPEC 2020-SI8
87P/Bus,e,2.6638,184.5705,51.7951,4.371606,0.1078307,0.21419010,220.8702,09/20.0/2025,2000,g  7.2,10.0
# From MPEC 2025-R69
88P/Howell,e,4.3820,56.6691,235.8762,3.108630,0.1798252,0.56323749,327.6703,09/20.0/2025,2000,g 11.0,6.0
# From MPC182887
89P/Russell,e,12.0698,41.3442,250.4475,3.751292,0.1356541,0.40734677,73.5813,09/20.0/2025,2000,g 11.5,6.0
# From MPEC 2022-K19
90P/Gehrels,e,9.6375,13.1785,29.2018,6.054667,0.0661559,0.51047974,199.1339,09/20.0/2025,2000,g  8.5,6.0
# From MPEC 2023-VM5
91P/Russell,e,16.0721,242.2382,357.0789,4.150396,0.1165654,0.25408001,228.1549,09/20.0/2025,2000,g  7.5,6.0
# From MPEC 2014-J58
92P/Sanguin,e,19.4767,181.3588,163.7747,5.344781,0.0797644,0.65998221,307.0811,09/20.0/2025,2000,g 12.0,6.0
# From MPEC 2025-R69
93P/Lovas,e,12.2101,339.5495,75.0336,4.373377,0.1077653,0.61391809,335.7605,09/20.0/2025,2000,g  9.5,6.0
# From MPEC 2025-R69
94P/Russell,e,6.1874,70.8450,92.3734,3.509817,0.1498916,0.36609360,127.8168,09/20.0/2025,2000,g  9.0,6.0
# From MPC182887
96P/Machholz,e,57.5892,93.9636,14.7376,3.031051,0.1867731,0.96171963,179.7849,09/20.0/2025,2000,g 13.0,4.8
# From MPC106348
96P-B/Machholz,e,57.5054,14.5548,94.0346,3.029988,0.1868714,0.96174983,179.9159,09/20.0/2025,2000,g 13.0,4.8
# From MPC103849
96P-C/Machholz,e,58.5311,94.3495,15.5380,3.011920,0.1885553,0.95889850,359.8715,07/14.0/2012,2000,g  9.0,4.0
# From MPEC 2024-GJ3
97P/Metcalf-Brewington,e,17.9357,184.0705,230.2145,4.770496,0.0945930,0.45983857,124.1139,09/20.0/2025,2000,g  5.5,6.0
# From MPEC 2021-W31
98P/Takamizawa,e,10.7055,114.4716,157.7929,3.775113,0.1343721,0.56982723,230.6084,09/20.0/2025,2000,g  9.0,8.0
# From MPEC 2024-R10
99P/Kowal,e,4.3392,28.0582,174.5159,6.093281,0.0655281,0.22884038,82.5700,09/20.0/2025,2000,g  4.5,6.0
# From MPC186635
100P/Hartley,e,25.5675,37.6857,181.9110,3.430303,0.1551334,0.41135149,176.3899,09/20.0/2025,2000,g  9.0,8.0
# From MPEC 2024-R10
101P/Chernykh,e,5.0485,116.1176,277.9975,5.818193,0.0702299,0.59543923,145.8804,09/20.0/2025,2000,g 10.0,4.8
# From MPC105241
101P-B/Chernykh,e,5.0503,278.5026,115.6162,5.833747,0.0699492,0.59565038,144.0545,09/20.0/2025,2000,g  9.0,4.0
# From MPEC 2022-C56
102P/Shoemaker,e,25.8517,339.3915,20.6726,3.820515,0.1319840,0.45588599,224.7383,09/20.0/2025,2000,g  6.5,8.0
# From MPC184417
103P/Hartley,e,13.6066,219.7587,181.3316,3.475895,0.1520912,0.69342854,107.7738,09/20.0/2025,2000,g  8.5,8.0
# From MPEC 2023-G31
104P/Kowal,e,5.7005,207.1761,227.3153,3.208584,0.1714881,0.66588948,230.8942,09/20.0/2025,2000,g 16.0,4.0
# From MPEC 2025-S35
105P/SingerBrewster,e,9.1674,192.3907,46.3236,3.472888,0.1522888,0.40914665,36.5907,09/20.0/2025,2000,g 11.5,6.0
# From MPEC 2024-R10
106P/Schuster,e,19.5314,48.8661,353.8003,3.768489,0.1347265,0.59344083,201.1348,09/20.0/2025,2000,g 14.0,4.8
# From MPEC 2022-P82
108P/Ciffreo,e,11.4311,50.3014,354.5360,3.744018,0.1360496,0.55559508,200.0720,09/20.0/2025,2000,g  8.0,12.0
# From ICA 105, 420
109P/Swift-Tuttle,e,113.0445,139.7557,153.2874,26.19959,0.0073496,0.96295459,87.9122,09/20.0/2025,2000,g  4.5,6.0
# From MPEC 2023-KD6
110P/Hartley,e,11.7119,287.4819,167.5739,3.603459,0.1440870,0.31925457,206.2139,09/20.0/2025,2000,g  1.0,12.0
# From MPC 75718
111P/Helin-Roman-Crockett,e,4.2261,89.8101,1.4748,4.152980,0.1164567,0.10717698,180.8254,09/20.0/2025,2000,g  5.0,8.0
# From MPEC 2021-S45
112P/Urata-Niijima,e,24.2017,31.8074,21.5624,3.522095,0.1491085,0.59081827,305.3040,09/20.0/2025,2000,g 14.0,6.0
# From MPEC 2024-JU4
113P/Spitaler,e,5.2878,306.6152,115.7525,3.696342,0.1386902,0.41959263,167.2858,09/20.0/2025,2000,g 13.5,4.0
# From MPEC 2023-A50
114P/Wiseman-Skiff,e,18.3038,271.0261,172.8224,3.539489,0.1480108,0.55614784,306.7216,09/20.0/2025,2000,g 11.5,6.0
# From MPEC 2023-J29
115P/Maury,e,11.6853,175.9585,120.9209,4.270634,0.1116775,0.51813686,210.1276,09/20.0/2025,2000,g 10.5,6.0
# From MPEC 2024-RQ6
116P/Wild,e,3.6048,20.9587,173.1515,3.485666,0.1514522,0.37081859,175.8617,09/20.0/2025,2000,g  2.5,10.0
# From MPC182887
117P/Helin-Roman-Alu,e,8.6688,58.8026,224.8496,4.121411,0.1177973,0.25156800,137.4142,09/20.0/2025,2000,g  2.5,8.0
# From MPC186635
118P/Shoemaker-Levy,e,10.0923,142.0493,314.9637,3.349002,0.1608167,0.45381731,165.6657,09/20.0/2025,2000,g 12.0,4.0
# From MPEC 2024-R10
119P/Parker-Hartley,e,7.3930,104.5409,322.2848,3.809639,0.1325496,0.38803264,150.3862,09/20.0/2025,2000,g  3.5,8.0
# From MPEC 2022-CN4
120P/Mueller,e,8.4805,358.6993,36.7939,3.970241,0.1245887,0.37403562,198.9120,09/20.0/2025,2000,g 12.0,4.0
# From MPC185663
121P/Shoemaker-Holt,e,20.1622,94.1042,12.0122,4.590007,0.1002268,0.18671511,81.3848,09/20.0/2025,2000,g  6.5,8.0
# From MPC 75718
122P/de Vico,e,86.0192,79.7402,13.0070,17.63452,0.0133094,0.96262669,145.6470,09/20.0/2025,2000,g  7.5,5.2
# From MPEC 2025-R69
123P/West-Hartley,e,15.2879,45.8810,103.9459,3.884953,0.1287139,0.44456624,312.7429,09/20.0/2025,2000,g  4.0,10.0
# From MPEC 2024-UQ8
124P/Mrkos,e,31.4018,359.9693,185.1086,3.377741,0.1587686,0.48641347,316.0852,09/20.0/2025,2000,g 13.5,2.8
# From MPEC 2024-UA9
125P/Spacewatch,e,9.9860,153.1507,87.0983,3.127532,0.1781974,0.51197572,100.1125,09/20.0/2025,2000,g 13.0,6.0
# From MPEC 2024-JU4
126P/IRAS,e,45.8715,357.8571,356.5557,5.626678,0.0738458,0.69594750,59.6715,09/20.0/2025,2000,g  6.0,8.0
# From MPEC 2024-R10
127P/Holt-Olmstead,e,14.2940,13.6163,6.3411,3.454674,0.1534947,0.35863506,174.5430,09/20.0/2025,2000,g 11.0,6.0
# From MPEC 2025-S35
128P/Shoemaker-Holt,e,4.3713,214.3081,210.5250,4.481649,0.1038837,0.32232988,328.8487,09/20.0/2025,2000,g  8.5,4.0
# From MPC185664
129P/Shoemaker-Levy,e,3.4413,184.8447,307.9320,4.294299,0.1107556,0.08597085,113.0880,09/20.0/2025,2000,g 11.0,4.0
# From MPC184417
130P/McNaught-Hughes,e,6.0510,70.1596,246.4966,3.392700,0.1577197,0.46123986,82.3884,09/20.0/2025,2000,g 10.0,6.0
# From MPEC 2025-S35
131P/Mueller,e,7.3620,214.1340,179.2580,3.674331,0.1399383,0.34468740,339.1951,09/20.0/2025,2000,g 11.0,4.0
# From MPEC 2024-BE0
132P/Helin-Roman-Alu,e,5.3771,173.9734,216.5175,3.892726,0.1283286,0.56390001,180.5799,09/20.0/2025,2000,g 11.0,6.0
# From MPC 89012
134P/Kowal-Vavrova,e,4.3327,201.9871,18.6359,6.275114,0.0627006,0.58553821,261.4916,09/20.0/2025,2000,g 11.5,4.0
# From MPEC 2024-C04
135P/Shoemaker-Levy,e,6.0624,213.0187,22.3547,3.801843,0.1329575,0.29334324,167.9681,09/20.0/2025,2000,g  7.0,8.0
# From MPEC 2025-R69
136P/Mueller,e,9.4273,137.4155,225.3704,4.186879,0.1150452,0.29328476,29.8356,09/20.0/2025,2000,g 11.0,4.0
# From MPEC 2023-J29
137P/Shoemaker-Levy,e,4.8594,232.9282,141.2123,4.523985,0.1024289,0.57285104,253.1177,09/20.0/2025,2000,g 11.0,4.0
# From MPEC 2025-S35
138P/Shoemaker-Levy,e,10.0983,309.2190,95.7490,3.616534,0.1433063,0.53150560,333.4442,09/20.0/2025,2000,g 15.0,6.0
# From MPEC 2020-HN5
139P/Vaisala-Oterma,e,2.3374,242.1771,166.0088,4.513021,0.1028023,0.24826123,291.0225,09/20.0/2025,2000,g  9.5,4.0
# From MPEC 2015-E14
140P/Bowell-Skiff,e,3.6870,343.3651,172.1483,6.414244,0.0606717,0.69504146,226.1381,09/20.0/2025,2000,g 11.5,6.0
# From MPEC 2015-KD9
141P-A/Machholz,e,13.9420,153.4983,241.9341,3.057067,0.1843939,0.73588023,320.2909,09/20.0/2025,2000,g 12.0,12.0
# From MPC 24216
141P-B/Machholz,e,13.9860,153.5745,241.8230,3.055428,0.1845423,0.73564152,321.7321,09/20.0/2025,2000,g  9.0,4.0
# From MPC 37026
141P-D/Machholz,e,13.8338,153.2236,242.1828,3.065608,0.1836239,0.73682326,315.8202,09/20.0/2025,2000,g 12.0,12.0
# From MPEC 2015-R12
